[
    {
        "Altitude(m)": 702930.244621037,
        "Argument of Periapsis(deg)": 0.005695060593313534,
        "Eccentricity": 0.0,
        "Inclination(deg)": 45.0,
        "Latitude(deg)": 18.744340194092047,
        "Longitude(deg)": -15.097504252885203,
        "Mean Anomaly(deg)": -206.96069167625964,
        "RAAN(deg)": 284.9946240292709,
        "Satellite Name": "Constellation 1 1263",
        "Satellite Number": 1263,
        "Semi-Major Axis(m)": 7083131.272910544,
        "Time(s)": 95
    },
    {
        "Altitude(m)": 702927.4081622062,
        "Argument of Periapsis(deg)": 0.00575500859955894,
        "Eccentricity": 0.0,
        "Inclination(deg)": 45.0,
        "Latitude(deg)": 18.70367930794299,
        "Longitude(deg)": -15.053846615875239,
        "Mean Anomaly(deg)": -206.8999905360097,
        "RAAN(deg)": 284.99456744010536,
        "Satellite Name": "Constellation 1 1263",
        "Satellite Number": 1263,
        "Semi-Major Axis(m)": 7083131.272910544,
        "Time(s)": 96
    },
    {
        "Altitude(m)": 702924.5865984545,
        "Argument of Periapsis(deg)": 0.005814956605804345,
        "Eccentricity": 0.0,
        "Inclination(deg)": 45.0,
        "Latitude(deg)": 18.663006106736297,
        "Longitude(deg)": -15.010211632242145,
        "Mean Anomaly(deg)": -206.8392893957598,
        "RAAN(deg)": 284.9945108509397,
        "Satellite Name": "Constellation 1 1263",
        "Satellite Number": 1263,
        "Semi-Major Axis(m)": 7083131.272910544,
        "Time(s)": 97
    },
    {
        "Altitude(m)": 702921.7799595394,
        "Argument of Periapsis(deg)": 0.00587490461204975,
        "Eccentricity": 0.0,
        "Inclination(deg)": 45.0,
        "Latitude(deg)": 18.622320624917606,
        "Longitude(deg)": -14.966599412853919,
        "Mean Anomaly(deg)": -206.7785882555099,
        "RAAN(deg)": 284.9944542617742,
        "Satellite Name": "Constellation 1 1263",
        "Satellite Number": 1263,
        "Semi-Major Axis(m)": 7083131.272910544,
        "Time(s)": 98
    },
    {
        "Altitude(m)": 702918.9882751552,
        "Argument of Periapsis(deg)": 0.005934852618295156,
        "Eccentricity": 0.0,
        "Inclination(deg)": 45.0,
        "Latitude(deg)": 18.58162289688802,
        "Longitude(deg)": -14.92300990051167,
        "Mean Anomaly(deg)": -206.71788711526003,
        "RAAN(deg)": 284.9943976726086,
        "Satellite Name": "Constellation 1 1263",
        "Satellite Number": 1263,
        "Semi-Major Axis(m)": 7083131.272910544,
        "Time(s)": 99
    },
    {
        "Altitude(m)": 702916.2115749397,
        "Argument of Periapsis(deg)": 0.005994800624540561,
        "Eccentricity": 0.0,
        "Inclination(deg)": 45.0,
        "Latitude(deg)": 18.540912957003915,
        "Longitude(deg)": -14.87944303804649,
        "Mean Anomaly(deg)": -206.6571859750101,
        "RAAN(deg)": 284.99434108344303,
        "Satellite Name": "Constellation 1 1263",
        "Satellite Number": 1263,
        "Semi-Major Axis(m)": 7083131.272910544,
        "Time(s)": 100
    },
    {
        "Altitude(m)": 702913.4498884815,
        "Argument of Periapsis(deg)": 0.006054748630785968,
        "Eccentricity": 0.0,
        "Inclination(deg)": 45.0,
        "Latitude(deg)": 18.500190839577034,
        "Longitude(deg)": -14.835898768319836,
        "Mean Anomaly(deg)": -206.5964848347602,
        "RAAN(deg)": 284.99428449427745,
        "Satellite Name": "Constellation 1 1263",
        "Satellite Number": 1263,
        "Semi-Major Axis(m)": 7083131.272910544,
        "Time(s)": 101
    },
    {
        "Altitude(m)": 702910.7032452924,
        "Argument of Periapsis(deg)": 0.006114696637031373,
        "Eccentricity": 0.0,
        "Inclination(deg)": 45.0,
        "Latitude(deg)": 18.459456578874647,
        "Longitude(deg)": -14.792377034223446,
        "Mean Anomaly(deg)": -206.53578369451037,
        "RAAN(deg)": 284.99422790511187,
        "Satellite Name": "Constellation 1 1263",
        "Satellite Number": 1263,
        "Semi-Major Axis(m)": 7083131.272910544,
        "Time(s)": 102
    },
    {
        "Altitude(m)": 702907.9716748376,
        "Argument of Periapsis(deg)": 0.006174644643276778,
        "Eccentricity": 0.0,
        "Inclination(deg)": 45.0,
        "Latitude(deg)": 18.418710209119464,
        "Longitude(deg)": -14.748877778679049,
        "Mean Anomaly(deg)": -206.4750825542604,
        "RAAN(deg)": 284.99417131594635,
        "Satellite Name": "Constellation 1 1263",
        "Satellite Number": 1263,
        "Semi-Major Axis(m)": 7083131.272910544,
        "Time(s)": 103
    },
    {
        "Altitude(m)": 702905.255206526,
        "Argument of Periapsis(deg)": 0.006234592649522184,
        "Eccentricity": 0.0,
        "Inclination(deg)": 45.0,
        "Latitude(deg)": 18.377951764489833,
        "Longitude(deg)": -14.705401112736087,
        "Mean Anomaly(deg)": -206.41438141401048,
        "RAAN(deg)": 284.99411472678077,
        "Satellite Name": "Constellation 1 1263",
        "Satellite Number": 1263,
        "Semi-Major Axis(m)": 7083131.272910544,
        "Time(s)": 104
    },
    {
        "Altitude(m)": 702902.5538696946,
        "Argument of Periapsis(deg)": 0.00629454065576759,
        "Eccentricity": 0.0,
        "Inclination(deg)": 45.0,
        "Latitude(deg)": 18.33718127912068,
        "Longitude(deg)": -14.661946643182938,
        "Mean Anomaly(deg)": -206.35368027376063,
        "RAAN(deg)": 284.9940581376152,
        "Satellite Name": "Constellation 1 1263",
        "Satellite Number": 1263,
        "Semi-Major Axis(m)": 7083131.272910544,
        "Time(s)": 105
    },
    {
        "Altitude(m)": 702899.8676936347,
        "Argument of Periapsis(deg)": 0.006354488662012995,
        "Eccentricity": 0.0,
        "Inclination(deg)": 45.0,
        "Latitude(deg)": 18.296398787101996,
        "Longitude(deg)": -14.618514481129582,
        "Mean Anomaly(deg)": -206.2929791335107,
        "RAAN(deg)": 284.9940015484496,
        "Satellite Name": "Constellation 1 1263",
        "Satellite Number": 1263,
        "Semi-Major Axis(m)": 7083131.272910544,
        "Time(s)": 106
    },
    {
        "Altitude(m)": 702897.1967075701,
        "Argument of Periapsis(deg)": 0.006414436668258401,
        "Eccentricity": 0.0,
        "Inclination(deg)": 45.0,
        "Latitude(deg)": 18.255604322480146,
        "Longitude(deg)": -14.575104569619304,
        "Mean Anomaly(deg)": -206.2322779932608,
        "RAAN(deg)": 284.993944959284,
        "Satellite Name": "Constellation 1 1263",
        "Satellite Number": 1263,
        "Semi-Major Axis(m)": 7083131.272910544,
        "Time(s)": 107
    },
    {
        "Altitude(m)": 702894.5409406654,
        "Argument of Periapsis(deg)": 0.0064743846745038075,
        "Eccentricity": 0.0,
        "Inclination(deg)": 45.0,
        "Latitude(deg)": 18.214797919257837,
        "Longitude(deg)": -14.531716851726149,
        "Mean Anomaly(deg)": -206.17157685301092,
        "RAAN(deg)": 284.9938883701185,
        "Satellite Name": "Constellation 1 1263",
        "Satellite Number": 1263,
        "Semi-Major Axis(m)": 7083131.272910544,
        "Time(s)": 108
    },
    {
        "Altitude(m)": 702891.9004220305,
        "Argument of Periapsis(deg)": 0.0065343326807492125,
        "Eccentricity": 0.0,
        "Inclination(deg)": 45.0,
        "Latitude(deg)": 18.173979611393754,
        "Longitude(deg)": -14.48835127055415,
        "Mean Anomaly(deg)": -206.11087571276104,
        "RAAN(deg)": 284.9938317809529,
        "Satellite Name": "Constellation 1 1263",
        "Satellite Number": 1263,
        "Semi-Major Axis(m)": 7083131.272910544,
        "Time(s)": 109
    },
    {
        "Altitude(m)": 702889.2751807099,
        "Argument of Periapsis(deg)": 0.0065942806869946176,
        "Eccentricity": 0.0,
        "Inclination(deg)": 45.0,
        "Latitude(deg)": 18.133149432803183,
        "Longitude(deg)": -14.44500776923823,
        "Mean Anomaly(deg)": -206.05017457251117,
        "RAAN(deg)": 284.9937751917873,
        "Satellite Name": "Constellation 1 1263",
        "Satellite Number": 1263,
        "Semi-Major Axis(m)": 7083131.272910544,
        "Time(s)": 110
    },
    {
        "Altitude(m)": 702886.6652456893,
        "Argument of Periapsis(deg)": 0.006654228693240024,
        "Eccentricity": 0.0,
        "Inclination(deg)": 45.0,
        "Latitude(deg)": 18.092307417357596,
        "Longitude(deg)": -14.401686459040569,
        "Mean Anomaly(deg)": -205.98947343226118,
        "RAAN(deg)": 284.99371860262175,
        "Satellite Name": "Constellation 1 1263",
        "Satellite Number": 1263,
        "Semi-Major Axis(m)": 7083131.272910544,
        "Time(s)": 111
    },
    {
        "Altitude(m)": 702884.0706458953,
        "Argument of Periapsis(deg)": 0.006714176699485429,
        "Eccentricity": 0.0,
        "Inclination(deg)": 45.0,
        "Latitude(deg)": 18.051453598886106,
        "Longitude(deg)": -14.358386946963353,
        "Mean Anomaly(deg)": -205.92877229201133,
        "RAAN(deg)": 284.9936620134562,
        "Satellite Name": "Constellation 1 1263",
        "Satellite Number": 1263,
        "Semi-Major Axis(m)": 7083131.272910544,
        "Time(s)": 112
    },
    {
        "Altitude(m)": 702881.4914101938,
        "Argument of Periapsis(deg)": 0.006774124705730835,
        "Eccentricity": 0.0,
        "Inclination(deg)": 45.0,
        "Latitude(deg)": 18.010588011173414,
        "Longitude(deg)": -14.315109344329782,
        "Mean Anomaly(deg)": -205.8680711517614,
        "RAAN(deg)": 284.99360542429065,
        "Satellite Name": "Constellation 1 1263",
        "Satellite Number": 1263,
        "Semi-Major Axis(m)": 7083131.272910544,
        "Time(s)": 113
    }
]